{
  "norad_id": 45747,
  "name": "STARLINK-1506",
  "history": [
    {
      "epoch": "2026-03-28T18:41:52.188000Z",
      "apogee_km": 488.1702923295052,
      "perigee_km": 483.8314707745767,
      "latitude_deg": -5.522422935871418e-05,
      "longitude_deg": 7.372880258249527,
      "height_km": 484.8640922286173,
      "semi_major_axis_km": 6864.137881552041,
      "eccentricity": 0.00031605,
      "inclination_deg": 53.076,
      "raan_deg": 114.035,
      "arg_perigee_deg": 339.1518,
      "mean_anomaly_deg": 20.935,
      "mean_motion_rev_day": 15.26594748
    }
  ]
}