{"fetched_at":"2026-03-29T16:36:15Z","count":15609,"tles":[{"name":"STARLINK-1506","line1":"1 45747U 20038T   26087.77907625  .00007518  00000+0  29618-3 0  9995","line2":"2 45747  53.0760 114.0350 0003160 339.1518  20.9350 15.26594748319603","category":"Starlink"}]}